[{"OBJECT_NAME":"ONEWEB-0683","OBJECT_ID":"2023-068K","EPOCH":"2026-05-04T02:15:46.141056","MEAN_MOTION":13.15549139,"ECCENTRICITY":0.0001634,"INCLINATION":87.8973,"RA_OF_ASC_NODE":267.9814,"ARG_OF_PERICENTER":105.7252,"MEAN_ANOMALY":254.4058,"EPHEMERIS_TYPE":0,"CLASSIFICATION_TYPE":"U","NORAD_CAT_ID":56719,"ELEMENT_SET_NO":999,"REV_AT_EPOCH":14362,"BSTAR":0.00020792,"MEAN_MOTION_DOT":9.1e-07,"MEAN_MOTION_DDOT":0.0},{"OBJECT_NAME":"ONEWEB-0684","OBJECT_ID":"2023-068L","EPOCH":"2026-05-04T02:27:09.552096","MEAN_MOTION":13.15549904,"ECCENTRICITY":0.0001883,"INCLINATION":87.8971,"RA_OF_ASC_NODE":267.971,"ARG_OF_PERICENTER":55.3454,"MEAN_ANOMALY":304.7854,"EPHEMERIS_TYPE":0,"CLASSIFICATION_TYPE":"U","NORAD_CAT_ID":56720,"ELEMENT_SET_NO":999,"REV_AT_EPOCH":14345,"BSTAR":-3.7132e-05,"MEAN_MOTION_DOT":-1e-08,"MEAN_MOTION_DDOT":0.0},{"OBJECT_NAME":"ONEWEB-0686","OBJECT_ID":"2023-068M","EPOCH":"2026-05-04T01:11:48.217632","MEAN_MOTION":13.16593908,"ECCENTRICITY":0.0001574,"INCLINATION":87.9082,"RA_OF_ASC_NODE":237.5613,"ARG_OF_PERICENTER":102.0838,"MEAN_ANOMALY":258.0469,"EPHEMERIS_TYPE":0,"CLASSIFICATION_TYPE":"U","NORAD_CAT_ID":56721,"ELEMENT_SET_NO":999,"REV_AT_EPOCH":14590,"BSTAR":-0.00017889,"MEAN_MOTION_DOT":-5.6e-07,"MEAN_MOTION_DDOT":0.0},{"OBJECT_NAME":"ONEWEB-0694","OBJECT_ID":"2023-068N","EPOCH":"2026-05-04T01:20:54.665664","MEAN_MOTION":13.16595779,"ECCENTRICITY":0.0001734,"INCLINATION":87.9103,"RA_OF_ASC_NODE":237.5158,"ARG_OF_PERICENTER":115.8665,"MEAN_ANOMALY":244.2645,"EPHEMERIS_TYPE":0,"CLASSIFICATION_TYPE":"U","NORAD_CAT_ID":56722,"ELEMENT_SET_NO":999,"REV_AT_EPOCH":14596,"BSTAR":0.00020448,"MEAN_MOTION_DOT":9.1e-07,"MEAN_MOTION_DDOT":0.0},{"OBJECT_NAME":"ONEWEB-0696","OBJECT_ID":"2023-068P","EPOCH":"2026-05-04T03:15:04.783392","MEAN_MOTION":13.15548801,"ECCENTRICITY":0.0001968,"INCLINATION":87.8957,"RA_OF_ASC_NODE":268.0058,"ARG_OF_PERICENTER":85.087,"MEAN_ANOMALY":275.0485,"EPHEMERIS_TYPE":0,"CLASSIFICATION_TYPE":"U","NORAD_CAT_ID":56723,"ELEMENT_SET_NO":999,"REV_AT_EPOCH":14357,"BSTAR":-3.5825000000000003e-05,"MEAN_MOTION_DOT":-1e-08,"MEAN_MOTION_DDOT":0.0},{"OBJECT_NAME":"ONEWEB-0703","OBJECT_ID":"2023-068Q","EPOCH":"2026-05-04T03:28:46.184736","MEAN_MOTION":13.15549666,"ECCENTRICITY":0.0002564,"INCLINATION":87.8962,"RA_OF_ASC_NODE":267.9849,"ARG_OF_PERICENTER":84.7774,"MEAN_ANOMALY":275.3649,"EPHEMERIS_TYPE":0,"CLASSIFICATION_TYPE":"U","NORAD_CAT_ID":56724,"ELEMENT_SET_NO":999,"REV_AT_EPOCH":14346,"BSTAR":0.00022664,"MEAN_MOTION_DOT":9.8e-07,"MEAN_MOTION_DDOT":0.0},{"OBJECT_NAME":"ONEWEB-0721","OBJECT_ID":"2023-068R","EPOCH":"2026-05-04T04:21:53.612928","MEAN_MOTION":13.22466619,"ECCENTRICITY":0.0001992,"INCLINATION":86.6733,"RA_OF_ASC_NODE":99.5624,"ARG_OF_PERICENTER":84.7568,"MEAN_ANOMALY":275.3792,"EPHEMERIS_TYPE":0,"CLASSIFICATION_TYPE":"U","NORAD_CAT_ID":56725,"ELEMENT_SET_NO":999,"REV_AT_EPOCH":15212,"BSTAR":0.00016124,"MEAN_MOTION_DOT":8.2e-07,"MEAN_MOTION_DDOT":0.0},{"OBJECT_NAME":"ONEWEB-0015","OBJECT_ID":"2024-188A","EPOCH":"2026-05-04T03:12:25.397856","MEAN_MOTION":13.11415705,"ECCENTRICITY":0.0002098,"INCLINATION":87.8921,"RA_OF_ASC_NODE":29.8535,"ARG_OF_PERICENTER":94.927,"MEAN_ANOMALY":265.2097,"EPHEMERIS_TYPE":0,"CLASSIFICATION_TYPE":"U","NORAD_CAT_ID":61594,"ELEMENT_SET_NO":999,"REV_AT_EPOCH":7868,"BSTAR":-0.00034693,"MEAN_MOTION_DOT":-1.1e-06,"MEAN_MOTION_DDOT":0.0},{"OBJECT_NAME":"ONEWEB-0687","OBJECT_ID":"2024-188B","EPOCH":"2026-05-04T02:41:05.767584","MEAN_MOTION":13.17647934,"ECCENTRICITY":0.0001626,"INCLINATION":87.917,"RA_OF_ASC_NODE":14.6389,"ARG_OF_PERICENTER":97.2279,"MEAN_ANOMALY":262.9037,"EPHEMERIS_TYPE":0,"CLASSIFICATION_TYPE":"U","NORAD_CAT_ID":61595,"ELEMENT_SET_NO":999,"REV_AT_EPOCH":8009,"BSTAR":4.9869000000000007e-05,"MEAN_MOTION_DOT":3.2e-07,"MEAN_MOTION_DDOT":0.0},{"OBJECT_NAME":"ONEWEB-0688","OBJECT_ID":"2024-188C","EPOCH":"2026-05-04T03:22:24.662208","MEAN_MOTION":13.17648738,"ECCENTRICITY":0.0002561,"INCLINATION":87.916,"RA_OF_ASC_NODE":14.6329,"ARG_OF_PERICENTER":107.4908,"MEAN_ANOMALY":252.6503,"EPHEMERIS_TYPE":0,"CLASSIFICATION_TYPE":"U","NORAD_CAT_ID":61596,"ELEMENT_SET_NO":999,"REV_AT_EPOCH":8009,"BSTAR":-0.00010049,"MEAN_MOTION_DOT":-2.6e-07,"MEAN_MOTION_DDOT":0.0},{"OBJECT_NAME":"ONEWEB-0689","OBJECT_ID":"2024-188D","EPOCH":"2026-05-04T00:21:31.592736","MEAN_MOTION":13.11419791,"ECCENTRICITY":0.0001505,"INCLINATION":87.8944,"RA_OF_ASC_NODE":29.8275,"ARG_OF_PERICENTER":82.3796,"MEAN_ANOMALY":277.7502,"EPHEMERIS_TYPE":0,"CLASSIFICATION_TYPE":"U","NORAD_CAT_ID":61597,"ELEMENT_SET_NO":999,"REV_AT_EPOCH":7866,"BSTAR":0.0002511,"MEAN_MOTION_DOT":1.02e-06,"MEAN_MOTION_DDOT":0.0},{"OBJECT_NAME":"ONEWEB-0690","OBJECT_ID":"2024-188E","EPOCH":"2026-05-04T04:15:56.565792","MEAN_MOTION":13.11417477,"ECCENTRICITY":0.0002395,"INCLINATION":87.8933,"RA_OF_ASC_NODE":29.8109,"ARG_OF_PERICENTER":70.4062,"MEAN_ANOMALY":289.7324,"EPHEMERIS_TYPE":0,"CLASSIFICATION_TYPE":"U","NORAD_CAT_ID":61598,"ELEMENT_SET_NO":999,"REV_AT_EPOCH":7886,"BSTAR":0.0013341,"MEAN_MOTION_DOT":4.86e-06,"MEAN_MOTION_DDOT":0.0},{"OBJECT_NAME":"ONEWEB-0691","OBJECT_ID":"2024-188F","EPOCH":"2026-05-04T04:08:36.261024","MEAN_MOTION":13.11419174,"ECCENTRICITY":0.0001914,"INCLINATION":87.8943,"RA_OF_ASC_NODE":29.7164,"ARG_OF_PERICENTER":91.798,"MEAN_ANOMALY":268.3367,"EPHEMERIS_TYPE":0,"CLASSIFICATION_TYPE":"U","NORAD_CAT_ID":61599,"ELEMENT_SET_NO":999,"REV_AT_EPOCH":7871,"BSTAR":0.00085993,"MEAN_MOTION_DOT":3.17e-06,"MEAN_MOTION_DDOT":0.0},{"OBJECT_NAME":"ONEWEB-0692","OBJECT_ID":"2024-188G","EPOCH":"2026-05-04T02:48:01.590048","MEAN_MOTION":13.1141651,"ECCENTRICITY":0.0001326,"INCLINATION":87.8921,"RA_OF_ASC_NODE":29.849,"ARG_OF_PERICENTER":55.4271,"MEAN_ANOMALY":304.6982,"EPHEMERIS_TYPE":0,"CLASSIFICATION_TYPE":"U","NORAD_CAT_ID":61600,"ELEMENT_SET_NO":999,"REV_AT_EPOCH":7869,"BSTAR":0.0014319,"MEAN_MOTION_DOT":5.2e-06,"MEAN_MOTION_DDOT":0.0},{"OBJECT_NAME":"ONEWEB-0693","OBJECT_ID":"2024-188H","EPOCH":"2026-05-04T03:39:25.327872","MEAN_MOTION":13.17648721,"ECCENTRICITY":0.0002591,"INCLINATION":87.9167,"RA_OF_ASC_NODE":14.6522,"ARG_OF_PERICENTER":75.1842,"MEAN_ANOMALY":284.9576,"EPHEMERIS_TYPE":0,"CLASSIFICATION_TYPE":"U","NORAD_CAT_ID":61601,"ELEMENT_SET_NO":999,"REV_AT_EPOCH":8008,"BSTAR":0.00011807,"MEAN_MOTION_DOT":5.9e-07,"MEAN_MOTION_DDOT":0.0},{"OBJECT_NAME":"ONEWEB-0695","OBJECT_ID":"2024-188J","EPOCH":"2026-05-04T00:23:58.294752","MEAN_MOTION":13.11419092,"ECCENTRICITY":0.0001284,"INCLINATION":87.8923,"RA_OF_ASC_NODE":29.8608,"ARG_OF_PERICENTER":72.3494,"MEAN_ANOMALY":287.7774,"EPHEMERIS_TYPE":0,"CLASSIFICATION_TYPE":"U","NORAD_CAT_ID":61602,"ELEMENT_SET_NO":999,"REV_AT_EPOCH":7867,"BSTAR":0.00029170000000000004,"MEAN_MOTION_DOT":1.16e-06,"MEAN_MOTION_DDOT":0.0},{"OBJECT_NAME":"ONEWEB-0697","OBJECT_ID":"2024-188K","EPOCH":"2026-05-04T03:00:13.912128","MEAN_MOTION":13.11415568,"ECCENTRICITY":0.000145,"INCLINATION":87.8922,"RA_OF_ASC_NODE":29.8292,"ARG_OF_PERICENTER":55.1781,"MEAN_ANOMALY":304.9484,"EPHEMERIS_TYPE":0,"CLASSIFICATION_TYPE":"U","NORAD_CAT_ID":61603,"ELEMENT_SET_NO":999,"REV_AT_EPOCH":7867,"BSTAR":0.0006435,"MEAN_MOTION_DOT":2.41e-06,"MEAN_MOTION_DDOT":0.0}]