ONEWEB-0683             
1 56719U 23068K   26124.09428404  .00000091  00000+0  20792-3 0  9995
2 56719  87.8973 267.9814 0001634 105.7252 254.4058 13.15549139143620
ONEWEB-0684             
1 56720U 23068L   26124.10219389 -.00000001  00000+0 -37132-4 0  9999
2 56720  87.8971 267.9710 0001883  55.3454 304.7854 13.15549904143459
ONEWEB-0686             
1 56721U 23068M   26124.04986363 -.00000056  00000+0 -17889-3 0  9992
2 56721  87.9082 237.5613 0001574 102.0838 258.0469 13.16593908145901
ONEWEB-0694             
1 56722U 23068N   26124.05618826  .00000091  00000+0  20448-3 0  9992
2 56722  87.9103 237.5158 0001734 115.8665 244.2645 13.16595779145965
ONEWEB-0696             
1 56723U 23068P   26124.13547203 -.00000001  00000+0 -35825-4 0  9991
2 56723  87.8957 268.0058 0001968  85.0870 275.0485 13.15548801143577
ONEWEB-0703             
1 56724U 23068Q   26124.14497899  .00000098  00000+0  22664-3 0  9998
2 56724  87.8962 267.9849 0002564  84.7774 275.3649 13.15549666143465
ONEWEB-0721             
1 56725U 23068R   26124.18187052  .00000082  00000+0  16124-3 0  9997
2 56725  86.6733  99.5624 0001992  84.7568 275.3792 13.22466619152120
ONEWEB-0015             
1 61594U 24188A   26124.13362729 -.00000110  00000+0 -34693-3 0  9997
2 61594  87.8921  29.8535 0002098  94.9270 265.2097 13.11415705 78682
ONEWEB-0687             
1 61595U 24188B   26124.11187231  .00000032  00000+0  49869-4 0  9992
2 61595  87.9170  14.6389 0001626  97.2279 262.9037 13.17647934 80093
ONEWEB-0688             
1 61596U 24188C   26124.14056322 -.00000026  00000+0 -10049-3 0  9994
2 61596  87.9160  14.6329 0002561 107.4908 252.6503 13.17648738 80096
ONEWEB-0689             
1 61597U 24188D   26124.01494899  .00000102  00000+0  25110-3 0  9994
2 61597  87.8944  29.8275 0001505  82.3796 277.7502 13.11419791 78663
ONEWEB-0690             
1 61598U 24188E   26124.17773803  .00000486  00000+0  13341-2 0  9994
2 61598  87.8933  29.8109 0002395  70.4062 289.7324 13.11417477 78866
ONEWEB-0691             
1 61599U 24188F   26124.17264191  .00000317  00000+0  85993-3 0  9996
2 61599  87.8943  29.7164 0001914  91.7980 268.3367 13.11419174 78719
ONEWEB-0692             
1 61600U 24188G   26124.11668507  .00000520  00000+0  14319-2 0  9991
2 61600  87.8921  29.8490 0001326  55.4271 304.6982 13.11416510 78693
ONEWEB-0693             
1 61601U 24188H   26124.15237648  .00000059  00000+0  11807-3 0  9991
2 61601  87.9167  14.6522 0002591  75.1842 284.9576 13.17648721 80085
ONEWEB-0695             
1 61602U 24188J   26124.01664693  .00000116  00000+0  29170-3 0  9997
2 61602  87.8923  29.8608 0001284  72.3494 287.7774 13.11419092 78672
ONEWEB-0697             
1 61603U 24188K   26124.12516102  .00000241  00000+0  64350-3 0  9999
2 61603  87.8922  29.8292 0001450  55.1781 304.9484 13.11415568 78678
